*******************************************************************************
JPL/HORIZONS              4243 Nankivell (1981 GF1)        2023-Sep-04 11:28:06
Rec #:    4243 (+COV) Soln.date: 2023-Aug-23_17:08:52   # obs: 3918 (1976-2023)
 
IAU76/J2000 helio. ecliptic osc. elements (au, days, deg., period=Julian yrs):
 
  EPOCH=  2457755.5 ! 2017-Jan-02.00 (TDB)         Residual RMS= .25891
   EC= .1189287600856487   QR= 2.666498125404622   TP= 2456997.4287483301
   OM= 345.1496737927673   W=  355.7686667894615   IN= 9.011352435164076
   A= 3.026427381358892    MA= 141.911867357191    ADIST= 3.386356637313161
   PER= 5.26506            N= .187201226           ANGMOM= .029713465
   DAN= 2.66727            DDN= 3.38511            L= 340.9703803
   B= -.6621669            MOID= 1.65652001        TP= 2014-Dec-05.9287483301
 
Asteroid physical parameters (km, seconds, rotational period in hours):
   GM= n.a.                RAD= 9.04               ROTPER= 7.16538
   H= 12.81                G= .150                 B-V= n.a.
                           ALBEDO= .0493           STYP= n.a.

ASTEROID comments: 
1: soln ref.= JPL#57, OCC=0
2: source=ORB
*******************************************************************************


*******************************************************************************
Ephemeris / API_USER Mon Sep  4 11:28:06 2023 Pasadena, USA      / Horizons
*******************************************************************************
Target body name: 4243 Nankivell (1981 GF1)       {source: JPL#57}
Center body name: Solar System Barycenter (0)     {source: DE441}
Center-site name: BODY CENTER
*******************************************************************************
Start time      : A.D. 2023-Aug-12 00:00:00.0000 TDB
Stop  time      : A.D. 2023-Aug-13 00:00:00.0000 TDB
Step-size       : 2880 minutes
*******************************************************************************
Center geodetic : 0.0, 0.0, 0.0                   {E-lon(deg),Lat(deg),Alt(km)}
Center cylindric: 0.0, 0.0, 0.0                   {E-lon(deg),Dxy(km),Dz(km)}
Center radii    : (undefined)
Small perturbers: Yes                             {source: SB441-N16}
Output units    : KM-S
Calendar mode   : Mixed Julian/Gregorian
Output type     : GEOMETRIC cartesian states
Output format   : 2 (position and velocity)
Reference frame : Ecliptic of J2000.0
*******************************************************************************
Initial IAU76/J2000 heliocentric ecliptic osculating elements (au, days, deg.):
  EPOCH=  2457755.5 ! 2017-Jan-02.00 (TDB)         Residual RMS= .25891        
   EC= .1189287600856487   QR= 2.666498125404622   TP= 2456997.4287483301      
   OM= 345.1496737927673   W=  355.7686667894615   IN= 9.011352435164076       
  Equivalent ICRF heliocentric cartesian coordinates (au, au/d):
   X=-2.157316124184891E+00  Y= 2.185741194875353E+00  Z= 1.271629314827950E+00
  VX=-7.182352239352008E-03 VY=-4.374369287222632E-03 VZ=-3.090658191595709E-03
Asteroid physical parameters (km, seconds, rotational period in hours):        
   GM= n.a.                RAD= 9.04               ROTPER= 7.16538             
   H= 12.81                G= .150                 B-V= n.a.                   
                           ALBEDO= .0493           STYP= n.a.                  
*******************************************************************************
JDTDB
   X     Y     Z
   VX    VY    VZ
*******************************************************************************
$$SOE
2460168.500000000 = A.D. 2023-Aug-12 00:00:00.0000 TDB 
 X =-4.459760449514856E+08 Y =-1.967468635524313E+08 Z =-4.832456913358083E+07
 VX= 7.733587338452755E+00 VY=-1.371426325887740E+01 VZ=-1.775348480802036E+00
$$EOE
*******************************************************************************
 
TIME

  Barycentric Dynamical Time ("TDB" or T_eph) output was requested. This
continuous coordinate time is equivalent to the relativistic proper time
of a clock at rest in a reference frame co-moving with the solar system
barycenter but outside the system's gravity well. It is the independent
variable in the solar system relativistic equations of motion.

  TDB runs at a uniform rate of one SI second per second and is independent
of irregularities in Earth's rotation.
 
CALENDAR SYSTEM

  Mixed calendar mode was active such that calendar dates after AD 1582-Oct-15
(if any) are in the modern Gregorian system. Dates prior to 1582-Oct-5 (if any)
are in the Julian calendar system, which is automatically extended for dates
prior to its adoption on 45-Jan-1 BC.  The Julian calendar is useful for
matching historical dates. The Gregorian calendar more accurately corresponds
to the Earth's orbital motion and seasons. A "Gregorian-only" calendar mode is
available if such physical events are the primary interest.

REFERENCE FRAME AND COORDINATES

  Ecliptic at the standard reference epoch

    Reference epoch: J2000.0
    X-Y plane: adopted Earth orbital plane at the reference epoch
               Note: IAU76 obliquity of 84381.448 arcseconds wrt ICRF X-Y plane
    X-axis   : ICRF
    Z-axis   : perpendicular to the X-Y plane in the directional (+ or -) sense
               of Earth's north pole at the reference epoch.

  Symbol meaning:

    JDTDB    Julian Day Number, Barycentric Dynamical Time
      X      X-component of position vector (km)
      Y      Y-component of position vector (km)
      Z      Z-component of position vector (km)
      VX     X-component of velocity vector (km/sec)                           
      VY     Y-component of velocity vector (km/sec)                           
      VZ     Z-component of velocity vector (km/sec)                           

ABERRATIONS AND CORRECTIONS

 Geometric state vectors have NO corrections or aberrations applied.

Computations by ...

    Solar System Dynamics Group, Horizons On-Line Ephemeris System
    4800 Oak Grove Drive, Jet Propulsion Laboratory
    Pasadena, CA  91109   USA

    General site: https://ssd.jpl.nasa.gov/
    Mailing list: https://ssd.jpl.nasa.gov/email_list.html
    System news : https://ssd.jpl.nasa.gov/horizons/news.html
    User Guide  : https://ssd.jpl.nasa.gov/horizons/manual.html
    Connect     : browser        https://ssd.jpl.nasa.gov/horizons/app.html#/x
                  API            https://ssd-api.jpl.nasa.gov/doc/horizons.html
                  command-line   telnet ssd.jpl.nasa.gov 6775
                  e-mail/batch   https://ssd.jpl.nasa.gov/ftp/ssd/hrzn_batch.txt
                  scripts        https://ssd.jpl.nasa.gov/ftp/ssd/SCRIPTS
    Author      : Jon.D.Giorgini@jpl.nasa.gov
*******************************************************************************
